     2.100          NAVIGATION                              RINEX VERSION / TYPE
fic2rin                                 12/17/2011 00:08:49 PGM / RUN BY / DATE
                                                            END OF HEADER
 9 11 12 16  6  0  0.0  .125323887914D-03  .261479726760D-11  .000000000000D+00
     .112000000000D+03  .709062500000D+02  .397016537332D-08  .256821960788D+01
     .350177288055D-05  .171513429377D-01  .697560608387D-05  .515364750481D+04
     .453600000000D+06  .204890966415D-06 -.137869810634D+01 -.614672899246D-07
     .984050315360D+00  .253218750000D+03  .160305358413D+01 -.764138972313D-08
     .221080637467D-09  .100000000000D+01  .166600000000D+04  .000000000000D+00
     .240000000000D+01  .000000000000D+00 -.558793544769D-08  .112000000000D+03
     .446406000000D+06  .400000000000D+01
10 11 12 16  6  0  0.0 -.223247334361D-04 -.125055521494D-11  .000000000000D+00
     .720000000000D+02  .145937500000D+02  .508199739988D-08  .769424473115D+00
     .813975930214D-06  .109531799098D-01  .570155680180D-05  .515365210533D+04
     .453600000000D+06 -.782310962677D-07  .284553062524D+01  .108033418655D-06
     .947427192603D+00  .262968750000D+03  .724481821553D+00 -.854392731744D-08
    -.260010830495D-09  .100000000000D+01  .166600000000D+04  .000000000000D+00
     .240000000000D+01  .000000000000D+00 -.279396772385D-08  .720000000000D+02
     .446406000000D+06  .400000000000D+01
11 11 12 16  6  0  0.0 -.213586725295D-03 -.352429196937D-11  .000000000000D+00
     .530000000000D+02  .990625000000D+01  .601346477066D-08 -.287448475399D+01
     .530853867531D-06  .126954322914D-01  .975839793682D-05  .515367449188D+04
     .453600000000D+06  .134110450745D-06  .151240152907D+01 -.134110450745D-06
     .887585172445D+00  .149656250000D+03  .101232886854D+01 -.851821196058D-08
     .296083761649D-09  .100000000000D+01  .166600000000D+04  .000000000000D+00
     .240000000000D+01  .000000000000D+00 -.116415321827D-07  .530000000000D+02
     .446406000000D+06  .400000000000D+01
12 11 12 16  6  0  0.0  .408878549933D-04  .227373675443D-11  .000000000000D+00
     .210000000000D+02 -.504375000000D+02  .440339770490D-08  .308444078178D+01
    -.263378024101D-05  .366024347022D-02  .421144068241D-05  .515360199738D+04
     .453600000000D+06 -.987201929092D-07 -.295930536889D+00 -.298023223877D-07
     .978009429218D+00  .305687500000D+03 -.739238325958D-01 -.811676666734D-08
    -.782175437889D-10  .100000000000D+01  .166600000000D+04  .000000000000D+00
     .240000000000D+01  .000000000000D+00 -.121071934700D-07  .210000000000D+02
     .446406000000D+06  .400000000000D+01
13 11 12 16  6  0  0.0  .236019957811D-03 -.204636307899D-11  .000000000000D+00
     .320000000000D+02  .135000000000D+02  .384230290448D-08 -.625089841844D+00
     .504776835442D-06  .461896404158D-02  .971369445324D-05  .515374533081D+04
     .453600000000D+06 -.987201929092D-07 -.232427181539D+01  .111758708954D-07
     .987749723581D+00  .210843750000D+03  .194683511663D+01 -.776353766822D-08
    -.127148153374D-09  .100000000000D+01  .166600000000D+04  .000000000000D+00
     .240000000000D+01  .000000000000D+00 -.116415321827D-07  .320000000000D+02
     .446406000000D+06  .400000000000D+01
14 11 12 16  6  0  0.0  .185954850167D-03  .170530256582D-11  .000000000000D+00
     .800000000000D+02  .171875000000D+02  .402195324478D-08 -.601551451913D+00
     .985339283943D-06  .626710662618D-02  .104531645775D-04  .515375549126D+04
     .453600000000D+06 -.167638063431D-07 -.234984296217D+01  .707805156708D-07
     .980685003981D+00  .191187500000D+03 -.205679523263D+01 -.788318550918D-08
    -.231081054025D-09  .100000000000D+01  .166600000000D+04  .000000000000D+00
     .240000000000D+01  .000000000000D+00 -.884756445885D-08  .800000000000D+02
     .446406000000D+06  .400000000000D+01
15 11 12 16  6  0  0.0 -.966615043581D-04  .909494701773D-12  .000000000000D+00
     .680000000000D+02  .162500000000D+02  .475091218028D-08 -.908585869106D+00
     .659376382828D-06  .410135264974D-02  .923685729504D-05  .515373465919D+04
     .453600000000D+06  .521540641785D-07 -.243227273591D+01 -.558793544769D-07
     .947699653780D+00  .191531250000D+03 -.348464994509D-01 -.816248285732D-08
    -.208937274505D-09  .100000000000D+01  .166600000000D+04  .000000000000D+00
     .240000000000D+01  .000000000000D+00 -.102445483208D-07  .680000000000D+02
     .446406000000D+06  .400000000000D+01
16 11 12 16  6  0  0.0 -.214154366404D-03 -.193267624127D-11  .000000000000D+00
     .940000000000D+02 -.459687500000D+02  .444625663301D-08  .739003376926D+00
    -.239722430706D-05  .622941844631D-02  .404380261898D-05  .515357468224D+04
     .453600000000D+06  .577419996262D-07 -.277908941234D+00  .484287738800D-07
     .978925931303D+00  .306968750000D+03 -.792247776986D-01 -.826927301984D-08
    -.140720147273D-09  .100000000000D+01  .166600000000D+04  .000000000000D+00
     .240000000000D+01  .000000000000D+00 -.977888703346D-08  .940000000000D+02
     .446406000000D+06  .400000000000D+01
18 11 12 16  6  0  0.0  .172088854015D-03  .181898940355D-11  .000000000000D+00
     .420000000000D+02  .637500000000D+01  .555130266261D-08  .125853077641D+01
     .322237610817D-06  .127364074579D-01  .572763383389D-05  .515364915276D+04
     .453600000000D+06 -.232830643654D-06  .283685824790D+01  .614672899246D-07
     .931266994894D+00  .253875000000D+03 -.220176005537D+01 -.879179478497D-08
    -.253939149013D-09  .100000000000D+01  .166600000000D+04  .000000000000D+00
     .240000000000D+01  .000000000000D+00 -.111758708954D-07  .420000000000D+02
     .446406000000D+06  .400000000000D+01
19 11 12 16  6  0  0.0 -.215611420572D-03 -.397903932026D-11  .000000000000D+00
     .940000000000D+02 -.725625000000D+02  .438661129140D-08 -.981049247176D+00
    -.377371907234D-05  .775242759846D-02  .104848295450D-04  .515373216438D+04
     .453600000000D+06  .143423676491D-06  .816632173905D+00 -.197440385818D-06
     .959553436132D+00  .178187500000D+03  .135890540844D+00 -.795890294883D-08
    -.104647216119D-09  .100000000000D+01  .166600000000D+04  .000000000000D+00
     .240000000000D+01  .000000000000D+00 -.144354999065D-07  .940000000000D+02
     .446406000000D+06  .400000000000D+01
20 11 12 16  6  0  0.0  .581117346883D-04  .682121026330D-12  .000000000000D+00
     .240000000000D+02  .184062500000D+02  .541058251534D-08  .171840819446D+01
     .888481736183D-06  .498969340697D-02  .551156699657D-05  .515380661011D+04
     .453600000000D+06 -.521540641785D-07  .278304709729D+01 -.838190317154D-07
     .931565065916D+00  .256406250000D+03  .126020785985D+01 -.859892960850D-08
    -.775032283206D-10  .100000000000D+01  .166600000000D+04  .000000000000D+00
     .240000000000D+01  .000000000000D+00 -.791624188423D-08  .240000000000D+02
     .446406000000D+06  .400000000000D+01
21 11 12 16  6  0  0.0 -.191188883036D-03 -.250111042988D-11  .000000000000D+00
     .240000000000D+02  .396875000000D+02  .517735851491D-08  .233113944920D+01
     .179000198841D-05  .182880721986D-01  .978447496891D-05  .515367614174D+04
     .453600000000D+06 -.894069671631D-07  .178442287603D+01 -.327825546265D-06
     .931068808993D+00  .173156250000D+03 -.231112038813D+01 -.815248244076D-08
     .371086885830D-09  .100000000000D+01  .166600000000D+04  .000000000000D+00
     .240000000000D+01  .000000000000D+00 -.111758708954D-07  .240000000000D+02
     .446406000000D+06  .400000000000D+01
22 11 12 16  6  0  0.0  .143079087138D-03 -.113686837722D-12  .000000000000D+00
     .500000000000D+01  .700000000000D+01  .559094717111D-08  .394333591291D+00
     .357627868652D-06  .575303484220D-02  .555068254471D-05  .515369199371D+04
     .453600000000D+06 -.137835741043D-06  .284057964525D+01  .353902578354D-07
     .928979440134D+00  .256093750000D+03 -.197791992120D+01 -.872607776188D-08
    -.173935816553D-09  .100000000000D+01  .166600000000D+04  .000000000000D+00
     .240000000000D+01  .000000000000D+00 -.167638063431D-07  .500000000000D+01
     .446406000000D+06  .400000000000D+01
23 11 12 16  6  0  0.0  .250448007137D-03 -.329691829393D-11  .000000000000D+00
     .660000000000D+02  .743750000000D+01  .437196782429D-08 -.145504960907D+01
     .134110450745D-06  .752296077553D-02  .927224755287D-05  .515369954681D+04
     .453600000000D+06 -.186264514923D-07 -.239896729923D+01 -.139698386192D-06
     .962319116408D+00  .200718750000D+03 -.303022848148D+01 -.797461788913D-08
    -.122862260563D-09  .100000000000D+01  .166600000000D+04  .000000000000D+00
     .240000000000D+01  .000000000000D+00 -.204890966415D-07  .660000000000D+02
     .446406000000D+06  .400000000000D+01
25 11 12 16  6  0  0.0  .301264226437D-04  .682121026330D-12  .000000000000D+00
     .104000000000D+03 -.465625000000D+02  .473519723997D-08  .173291755934D+01
    -.240467488766D-05  .104241212830D-02  .372901558876D-05  .515378765488D+04
     .453600000000D+06 -.894069671631D-07 -.328126448218D+00  .167638063431D-07
     .966822291321D+00  .308812500000D+03  .830241678853D+00 -.837463455143D-08
    -.375015620906D-10  .100000000000D+01  .166600000000D+04  .000000000000D+00
     .240000000000D+01  .000000000000D+00  .512227416039D-08  .104000000000D+03
     .446406000000D+06  .400000000000D+01
26 11 12 16  6  0  0.0 -.263256486505D-03 -.138697942020D-10  .000000000000D+00
     .730000000000D+02  .267500000000D+02  .384015995808D-08 -.159509371959D+01
     .153854489326D-05  .205291114980D-01  .941008329391D-05  .515365401268D+04
     .453600000000D+06  .443309545517D-06 -.232972634495D+01  .251457095146D-06
     .985333202351D+00  .206062500000D+03  .116671708101D+01 -.757245828043D-08
    -.144648882349D-09  .100000000000D+01  .166600000000D+04  .000000000000D+00
     .240000000000D+01  .000000000000D+00 -.605359673500D-08  .730000000000D+02
     .446406000000D+06  .400000000000D+01
